[{"OBJECT_NAME":"STARLINK-34102","OBJECT_ID":"2025-092C","EPOCH":"2026-03-09T07:35:32.619264","MEAN_MOTION":15.27586538,"ECCENTRICITY":0.00028839,"INCLINATION":42.996,"RA_OF_ASC_NODE":174.99,"ARG_OF_PERICENTER":287.5532,"MEAN_ANOMALY":72.5004,"EPHEMERIS_TYPE":0,"CLASSIFICATION_TYPE":"U","NORAD_CAT_ID":63806,"ELEMENT_SET_NO":999,"REV_AT_EPOCH":4860,"BSTAR":0.0010761589,"MEAN_MOTION_DOT":0.00029478,"MEAN_MOTION_DDOT":0},{"OBJECT_NAME":"CZ-4B DEB","OBJECT_ID":"2010-051E","EPOCH":"2026-03-08T22:01:50.125728","MEAN_MOTION":15.23766972,"ECCENTRICITY":0.00561086,"INCLINATION":97.769,"RA_OF_ASC_NODE":240.5013,"ARG_OF_PERICENTER":301.1291,"MEAN_ANOMALY":58.4449,"EPHEMERIS_TYPE":0,"CLASSIFICATION_TYPE":"U","NORAD_CAT_ID":38184,"ELEMENT_SET_NO":999,"REV_AT_EPOCH":82066,"BSTAR":0.0024566319,"MEAN_MOTION_DOT":0.00062123,"MEAN_MOTION_DDOT":0}]
